STARLINK-3314           
1 50851U 22001BA  25242.47776094  .00007544  00000+0  49188-3 0  9995
2 50851  53.2178 317.4320 0001254  77.0510 283.0623 15.08814442201407
STARLINK-3366           
1 51104U 22005A   25242.76940302  .00000235  00000+0  32870-4 0  9999
2 51104  53.2178  66.1962 0001320  84.4881 275.6262 15.08842453200055
STARLINK-3350           
1 51105U 22005B   25242.80988204  .00004639  00000+0  30957-3 0  9993
2 51105  53.2181  66.0155 0001431  99.6452 260.4702 15.08819081200061
STARLINK-3176           
1 51106U 22005C   25242.78779961 -.00000107  00000+0  11387-4 0  9993
2 51106  53.2179  66.1120 0001367  92.0247 268.0901 15.08839821200057
STARLINK-3362           
1 51108U 22005E   25242.80619848 -.00001065  00000+0 -48821-4 0  9993
2 51108  53.2181  66.0323 0001236  84.8280 275.2853 15.08848282200065
STARLINK-3358           
1 51109U 22005F   25242.82459441  .00000781  00000+0  67136-4 0  9999
2 51109  53.2180  65.9040 0001310  83.5534 276.5607 15.08841932199838
STARLINK-3344           
1 51110U 22005G   25242.79515860  .00000053  00000+0  21410-4 0  9992
2 51110  53.2180  66.0590 0001313  90.3251 269.7892 15.08836735200060
STARLINK-3173           
1 51111U 22005H   25242.77308286  .00000116  00000+0  25384-4 0  9997
2 51111  53.2172  66.1774 0001268  88.3154 271.7984 15.08838800200054
STARLINK-3374           
1 51112U 22005J   25242.79243498 -.00000243  00000+0  27961-5 0  9999
2 51112  53.2174  66.0630 0001268  90.2193 269.8945 15.08836502200065
STARLINK-3372           
1 51113U 22005K   25242.91660615 -.00001889  00000+0 -10063-3 0  9999
2 51113  53.2172  65.5330 0001310  92.7610 267.3532 15.08831498200079
STARLINK-3375           
1 51114U 22005L   25242.80253904 -.00001022  00000+0 -46145-4 0  9997
2 51114  53.2174  66.0481 0001280  90.2006 269.9133 15.08823086200061
STARLINK-3397           
1 51115U 22005M   25242.77676294 -.00000377  00000+0 -55704-5 0  9999
2 51115  53.2176  66.1601 0001245  90.3474 269.7661 15.08841050200054
STARLINK-3243           
1 51116U 22005N   25242.92123167  .00000339  00000+0  39366-4 0  9994
2 51116  53.2179  65.4834 0001403  84.6561 275.4591 15.08841377200077
STARLINK-3391           
1 51117U 22005P   25242.81722763  .00000607  00000+0  56197-4 0  9999
2 51117  53.2180  65.8729 0001321  89.3330 270.7813 15.08838951200060
STARLINK-3394           
1 51118U 22005Q   25242.91291467  .00000902  00000+0  74728-4 0  9991
2 51118  53.2171  65.5494 0001291  86.2675 273.8465 15.08847688200076
STARLINK-3398           
1 51120U 22005S   25242.81820617 -.00000304  00000+0 -10017-5 0  9998
2 51120  53.2197  65.9907 0001562  87.3483 272.7688 15.08836138200062
STARLINK-3399           
1 51121U 22005T   25242.83292498  .00000026  00000+0  19717-4 0  9995
2 51121  53.2181  65.9212 0001396  86.1094 274.0058 15.08837121200064
STARLINK-3392           
1 51123U 22005V   25242.81356495 -.00002183  00000+0 -11917-3 0  9994
2 51123  53.2178  65.9986 0001263  95.0769 265.0367 15.08822731200065
STARLINK-3389           
1 51124U 22005W   25242.92304459  .00000004  00000+0  18322-4 0  9996
2 51124  53.2181  75.5062 0001396  84.8017 275.3135 15.08840175199944
STARLINK-3387           
1 51125U 22005X   25242.91296053  .00000690  00000+0  61430-4 0  9995
2 51125  53.2180  75.5646 0001340  99.1017 261.0127 15.08840064199928
STARLINK-3386           
1 51126U 22005Y   25242.85408147  .00000633  00000+0  57888-4 0  9997
2 51126  53.2178  75.8267 0001409  86.5741 273.5412 15.08835557199935
STARLINK-3370           
1 51127U 22005Z   25242.91664116  .00000254  00000+0  34053-4 0  9993
2 51127  53.2177  75.5461 0001766  91.2857 268.8337 15.08839212199930
STARLINK-3400           
1 51128U 22005AA  25242.83103940  .00000259  00000+0  34339-4 0  9990
2 51128  53.2167  75.9196 0001182  92.1327 267.9800 15.08840182199914
STARLINK-3396           
1 51129U 22005AB  25242.92400287 -.00000052  00000+0  14803-4 0  9991
2 51129  53.2177  75.5023 0001271  88.9532 271.1605 15.08836145199937
STARLINK-3395           
1 51130U 22005AC  25242.84208310  .00000033  00000+0  20147-4 0  9993
2 51130  53.2183  75.8714 0001370  91.8609 268.2540 15.08838066199911
STARLINK-3388           
1 51131U 22005AD  25242.83472412 -.00002424  00000+0 -13430-3 0  9993
2 51131  53.2182  75.9047 0001359  87.3091 272.8057 15.08829898199910
STARLINK-3393           
1 51132U 22005AE  25242.83840622  .00000122  00000+0  25766-4 0  9993
2 51132  53.2180  75.8881 0001233  90.6647 269.4487 15.08833986199911
STARLINK-3356           
1 51133U 22005AF  25242.82736110  .00000597  00000+0  55559-4 0  9998
2 51133  53.2170  75.9363 0001204  91.4044 268.7087 15.08841761199913
STARLINK-3183           
1 51134U 22005AG  25242.79612099 -.00001004  00000+0 -45010-4 0  9991
2 51134  53.2185  66.0780 0001354  92.1734 267.9413 15.08836867200068
STARLINK-3363           
1 51135U 22005AH  25242.81359773 -.00001722  00000+0 -90184-4 0  9991
2 51135  53.2176  75.8951 0001248  88.3856 271.7279 15.08825261199911
STARLINK-3253           
1 51136U 22005AJ  25242.93772922  .00000966  00000+0  78777-4 0  9991
2 51136  53.2173  75.2354 0001349  88.3776 271.7371 15.08846248199936
STARLINK-3180           
1 51137U 22005AK  25242.81263647  .00000497  00000+0  49292-4 0  9997
2 51137  53.2178  75.9997 0001399  92.0972 268.0181 15.08841959199928
STARLINK-3177           
1 51138U 22005AL  25242.82000970 -.00001312  00000+0 -64394-4 0  9996
2 51138  53.2177  75.9686 0001180  83.6474 276.4653 15.08828154199912
STARLINK-3172           
1 51139U 22005AM  25242.80623661  .00000580  00000+0  54553-4 0  9993
2 51139  53.2172  76.0395 0001375  89.4320 270.6830 15.08843029199929
STARLINK-3175           
1 51140U 22005AN  25242.81727182 -.00000121  00000+0  10463-4 0  9993
2 51140  53.2176  75.9916 0001406  86.2452 273.8701 15.08845803199922
STARLINK-3179           
1 51141U 22005AP  25242.93039757  .00000836  00000+0  70605-4 0  9997
2 51141  53.2170  75.4711 0001291  92.4466 267.6674 15.08842209199940
STARLINK-3369           
1 51142U 22005AQ  25242.79735939  .00021111  00000+0  13270-2 0  9999
2 51142  53.2175  66.1234 0001004  82.8643 277.2463 15.09211465200058
STARLINK-3184           
1 51143U 22005AR  25242.84852388  .00001440  00000+0  10852-3 0  9991
2 51143  53.2154  85.8429 0000966  90.0861 270.0242 15.08835621199787
STARLINK-3185           
1 51144U 22005AS  25242.93504826  .00004108  00000+0  27607-3 0  9993
2 51144  53.2171  75.4617 0001279  63.1495 296.9628 15.08834779199949
STARLINK-3354           
1 51146U 22005AU  25242.94236777  .00007128  00000+0  46503-3 0  9994
2 51146  53.2171  75.4288 0001458  77.4529 282.6626 15.08875863199938
STARLINK-3352           
1 51147U 22005AV  25242.88773277  .00036761  00000+0  22095-2 0  9993
2 51147  53.2149  85.3462 0002664 131.1959 228.9265 15.10554862199795
STARLINK-3359           
1 51148U 22005AW  25242.86054535 -.00000236  00000+0  32765-5 0  9998
2 51148  53.2176  85.9918 0001375 103.6753 256.4393 15.08836973199782
STARLINK-3360           
1 51149U 22005AX  25242.88625400  .00000509  00000+0  50051-4 0  9995
2 51149  53.2179  85.4893 0001341  88.3273 271.7873 15.08841493199799
STARLINK-3357           
1 51150U 22005AY  25242.82363383 -.00002540  00000+0 -14164-3 0  9993
2 51150  53.2177  75.5675 0001354  83.1460 276.9686 15.08825775199932
STARLINK-3361           
1 51151U 22005AZ  25242.91668981  .00177285  00000+0  13999-2 0  9997
2 51151  53.2018  11.1910 0005225 291.3598 274.1667 15.70330915  5910
STARLINK-3364           
1 51152U 22005BA  25242.86319773 -.00000415  00000+0 -80106-5 0  9993
2 51152  53.2182  85.3922 0001390  90.3547 269.7604 15.08835758199796
STARLINK-3181           
1 51461U 22010F   25242.79976598 -.00000095  00000+0  12093-4 0  9990
2 51461  53.2188  56.0609 0001351  86.3571 273.7576 15.08837184198002
STARLINK-3166           
1 51462U 22010G   25242.79703980  .00000707  00000+0  62513-4 0  9995
2 51462  53.2182  56.0837 0001254  93.2376 266.8760 15.08838636198003
STARLINK-3419           
1 51463U 22010H   25242.77032053 -.00000548  00000+0 -16322-4 0  9992
2 51463  53.2186  56.1951 0001270  91.6456 268.4682 15.08838322197692
STARLINK-3189           
1 51464U 22010J   25242.78869161  .00004866  00000+0  32328-3 0  9990
2 51464  53.2183  56.1098 0001675 121.5841 238.5314 15.08876334198508
STARLINK-3401           
1 51465U 22010K   25242.78504897 -.00000698  00000+0 -25764-4 0  9991
2 51465  53.2187  56.1276 0001452  94.2644 265.8514 15.08831048198509
STARLINK-3178           
1 51467U 22010M   25242.76665833 -.00001541  00000+0 -78775-4 0  9997
2 51467  53.2182  56.2058 0001332  93.7994 266.3151 15.08822707197698
STARLINK-3174           
1 51468U 22010N   25242.77399645 -.00000127  00000+0  10120-4 0  9992
2 51468  53.2189  56.1387 0001267  88.5253 271.5885 15.08838447197697
STARLINK-3182           
1 51469U 22010P   25242.79240648 -.00000171  00000+0  73299-5 0  9999
2 51469  53.2196  56.0953 0001352  94.2494 265.8653 15.08836575198005
STARLINK-3415           
1 51472U 22010S   25242.76758497  .00001009  00000+0  81444-4 0  9996
2 51472  53.2189  56.1373 0001327  86.6464 273.4680 15.08840800198003
STARLINK-3528           
1 51714U 22016A   25242.90651278 -.00002887  00000+0 -16335-3 0  9999
2 51714  53.2176 105.5627 0001477 112.4300 247.6849 15.08838505194625
STARLINK-3533           
1 51715U 22016B   25242.89915567 -.00000559  00000+0 -17018-4 0  9996
2 51715  53.2176 105.6251 0001330 103.5076 256.6065 15.08842704195750
STARLINK-3543           
1 51716U 22016C   25242.90556378 -.00000680  00000+0 -24644-4 0  9998
2 51716  53.2176 105.5855 0001387  91.8587 268.2564 15.08837148194622
STARLINK-3445           
1 51717U 22016D   25242.84396626  .00000797  00000+0  68156-4 0  9993
2 51717  53.2172 105.9478 0001190 105.1798 254.9326 15.08843501194616
